OPTICUBE 04             
1 41851U 16067D   19226.83716554  .00000179  00000-0  20956-4 0  9991
2 41851  97.9189 325.1447 0008570 183.9490 176.1664 14.96823652150467
AEROCUBE 8D             
1 41852U 16067E   19227.24436479 -.00000208  00000-0 -12897-4 0  9993
2 41852  97.9200 325.3824 0009317 184.6246 175.4891 14.96740692150501
AEROCUBE 8C             
1 41853U 16067F   19226.86752221 -.00000028  00000-0  29002-5 0  9993
2 41853  97.9187 324.9324 0009889 189.2054 170.8987 14.96697907150446
PROMETHEUS 2-1          
1 41854U 16067G   19227.22751668  .00000791  00000-0  74093-4 0  9994
2 41854  97.9204 325.4568 0010221 184.6061 175.5068 14.96930682150501
PROMETHEUS 2-3          
1 41855U 16067H   19226.82859071  .00000769  00000-0  72191-4 0  9999
2 41855  97.9207 325.0710 0010317 186.4268 173.6822 14.96936214150442
INS-1B                  
1 41954U 17008G   19226.94764014  .00000650  00000-0  29715-4 0  9993
2 41954  97.3962 291.2296 0007787 311.4300  48.6267 15.24037688138529
BGUSAT                  
1 41999U 17008BD  19227.17738087  .00001120  00000-0  46022-4 0  9992
2 41999  97.4039 294.0707 0006961 326.7556  33.3245 15.26262419138067
DIDO-2                  
1 42000U 17008BE  19226.74208343  .00000499  00000-0  23533-4 0  9995
2 42000  97.3974 291.5773 0007608 334.4911  25.5949 15.23961896137899
PEASSS                  
1 42015U 17008BV  19226.73517645  .00000589  00000-0  26515-4 0  9991
2 42015  97.3984 292.6160 0005638 344.3405  15.7657 15.24941428138446
AL-FARABI 1             
1 42016U 17008BW  19226.70999807  .00000791  00000-0  33981-4 0  9993
2 42016  97.4000 293.1981 0005445 343.7459  16.3604 15.25597056138592
NAYIF-1 (EO-88)         
1 42017U 17008BX  19226.69625855  .00000804  00000-0  34441-4 0  9998
2 42017  97.3998 293.1951 0005450 344.2576  15.8492 15.25631429138612
ALTAIR PATHFINDER       
1 42711U 98067LS  19227.37548854  .00033436  00000-0  14455-3 0  9991
2 42711  51.6340 349.7846 0003255 349.7938  10.2998 15.84592486128221
NSIGHT                  
1 42726U 98067MF  19227.42385594  .00015054  00000-0  11117-3 0  9991
2 42726  51.6370  13.0101 0004405  33.6133 326.5144 15.73224950126904
UCLSAT                  
1 42765U 17036A   19226.64052498  .00000668  00000-0  31461-4 0  9998
2 42765  97.3470 283.4223 0012412  37.1887 323.0208 15.22822971119136
LITUANICASAT-2          
1 42768U 17036D   19226.68224192  .00001078  00000-0  48782-4 0  9997
2 42768  97.3507 283.0976 0015662  26.3607 333.8424 15.22932537118982
AALTO-1                 
1 42775U 17036L   19226.68748457  .00000416  00000-0  21564-4 0  9994
2 42775  97.3453 282.0843 0014659  27.1069 333.0929 15.21392704118873
URSA MAIOR              
1 42776U 17036M   19226.70898598  .00000456  00000-0  23233-4 0  9999
2 42776  97.3462 282.2716 0014467  27.0533 333.1454 15.21529933118888
COMPASS 2               
1 42777U 17036N   19226.69732663  .00000897  00000-0  41018-4 0  9998
2 42777  97.3503 283.5775 0013197  28.5573 331.6384 15.23001837118945
DIAMOND RED             
1 42783U 17036U   19226.64055064  .00000510  00000-0  25128-4 0  9999
2 42783  97.3470 282.9776 0013107  37.8430 322.3725 15.22268307118914
PEGASUS                 
1 42784U 17036V   19226.93720011  .00000604  00000-0  28927-4 0  9997
2 42784  97.3473 283.5147 0012963  36.3198 323.8916 15.22569504118978
DIAMOND GREEN           
1 42785U 17036W   19227.16521287  .00000538  00000-0  26336-4 0  9996
2 42785  97.3471 283.5161 0012984  36.7357 323.4767 15.22267864118982
DIAMOND BLUE            
1 42786U 17036X   19226.70425647  .00000552  00000-0  26958-4 0  9995
2 42786  97.3471 283.0634 0012867  38.5390 321.6763 15.22266661118924
NUDTSAT                 
1 42787U 17036Y   19226.96409823  .00001063  00000-0  47319-4 0  9994
2 42787  97.3507 284.3144 0013024  27.6687 332.5278 15.23567307118866
SUCHAI                  
1 42788U 17036Z   19226.73141113  .00000742  00000-0  34444-4 0  9993
2 42788  97.3478 283.6513 0012521  36.4781 323.7306 15.22998205119038
SKCUBE                  
1 42789U 17036AA  19226.68529408  .00000685  00000-0  32134-4 0  9995
2 42789  97.3474 283.5378 0012390  36.8341 323.3745 15.22892256118944
VZLUSAT-1               
1 42790U 17036AB  19226.68831755  .00000918  00000-0  41256-4 0  9992
2 42790  97.3489 284.0460 0011917  36.2233 323.9809 15.23563328118974
ROBUSTA-1B              
1 42792U 17036AD  19226.67559421  .00000735  00000-0  34123-4 0  9992
2 42792  97.3475 283.6903 0011988  37.7508 322.4568 15.23063026118962
CICERO 6                
1 42793U 17036AE  19226.68500425  .00000479  00000-0  23516-4 0  9993
2 42793  97.3457 283.4390 0011306  39.7897 320.4166 15.22636053119023
D-SAT                   
1 42794U 17036AF  19226.91461249  .00000127  00000-0  16663-4 0  9995
2 42794  97.5354 269.0857 0125290 311.4290  47.6217 14.91118502116868
CORVUS BC2              
1 42846U 17042X   19227.28934988 -.00000071  00000-0 -17480-5 0  9995
2 42846  97.5586 118.9758 0008542 215.6346 144.4304 14.91988499113604
CORVUS BC1              
1 42847U 17042Y   19226.70222961  .00000150  00000-0  20037-4 0  9990
2 42847  97.5589 118.5283 0008156 216.8923 143.1736 14.92088838113516
MIRATA                  
1 43015U 17073C   19226.78438658  .00000692  00000-0  59715-4 0  9998
2 43015  97.7174 145.7729 0254624 332.0873  26.6870 14.79065069 93732
MAKERSAT 0              
1 43016U 17073D   19226.74060648  .00000471  00000-0  42507-4 0  9991
2 43016  97.7206 145.9326 0256799 332.6589  26.1297 14.78795872 93716
ASTERIA                 
1 43020U 98067NH  19226.83915894  .00018343  00000-0  13901-3 0  9992
2 43020  51.6430  27.3578 0001974 349.8611  10.2347 15.72438025 98848
DELLINGR (RBLE)         
1 43021U 98067NJ  19227.36551237  .00005409  00000-0  62244-4 0  9993
2 43021  51.6385  40.5153 0001816 332.5734  27.5165 15.63810217 98716
AEROCUBE 7B (OCSD B)    
1 43042U 17071F   19227.20972852  .00001868  00000-0  53581-4 0  9994
2 43042  51.6384 131.6654 0004695  11.7166 348.3928 15.41439796 94957
AEROCUBE 7C (OCSD C)    
1 43043U 17071G   19227.14490966  .00001786  00000-0  51667-4 0  9991
2 43043  51.6385 131.9969 0005024  15.6153 344.4987 15.41436379 94919
CHEFSAT                 
1 43044U 17071H   19227.22863303  .00003523  00000-0  84484-4 0  9994
2 43044  51.6388 125.1908 0004847  15.2158 344.8973 15.44221547 95017
ASGARDIA 1              
1 43049U 17071N   19227.15713275  .00001619  00000-0  47540-4 0  9999
2 43049  51.6395 131.3632 0002764  37.3624 322.7553 15.41553615 94910
ISARA                   
1 43050U 17071P   19227.13328411  .00003335  00000-0  81750-4 0  9991
2 43050  51.6381 126.7554 0002597  35.8065 324.3095 15.43729836 94971
PROPCUBE 2 (FAUNA)      
1 43052U 17071R   19227.15221790  .00001865  00000-0  52807-4 0  9994
2 43052  51.6391 130.5992 0002698  34.1590 325.9568 15.41847631 94929
CORVUS BC3              
1 43118U 18004H   19227.16559096  .00000408  00000-0  20434-4 0  9991
2 43118  97.4830 294.3236 0011793  56.2257 304.0101 15.22900692 88222
MICROMAS-2A             
1 43131U 18004W   19227.18837783  .00000944  00000-0  41632-4 0  9998
2 43131  97.4859 295.1674 0010745  58.0871 302.1409 15.24243055 88271
SPACEBEE-4              
1 43139U 18004AE  19226.71786064  .00001449  00000-0  60740-4 0  9991
2 43139  97.4878 295.2643 0010260  62.4378 297.7900 15.25119157 88226
SPACEBEE-3              
1 43140U 18004AF  19226.74190768  .00001761  00000-0  71993-4 0  9995
2 43140  97.4891 295.5839 0010059  62.2789 297.9468 15.25677940 88256
SPACEBEE-2              
1 43141U 18004AG  19227.09895942  .00001919  00000-0  77733-4 0  9994
2 43141  97.4896 296.0409 0009943  61.4449 298.7789 15.25869275 88311
SPACEBEE-1              
1 43142U 18004AH  19227.18887116  .00002039  00000-0  81916-4 0  9991
2 43142  97.4899 296.2483 0009891  61.0229 299.1999 15.26082921 88328
CICERO 7                
1 43143U 18004AJ  19226.74746439  .00000896  00000-0  39555-4 0  9996
2 43143  97.4844 294.9419 0009089  68.5146 291.7059 15.24362456 88228
GOMX-4B                 
1 43196U 18015E   19227.35409653  .00000213  00000-0  11695-4 0  9996
2 43196  97.3954 354.1038 0020160 103.3069 257.0418 15.23982381 85122
GOMX-4A                 
1 43197U 18015F   19227.41089834  .00000266  00000-0  13855-4 0  9997
2 43197  97.3992 354.1923 0020620 103.8956 327.7721 15.24078068 85142
1KUNS-PF                
1 43466U 98067NP  19226.86480388  .00015141  00000-0  13962-3 0  9994
2 43466  51.6369  43.8811 0000504   0.2938 359.8059 15.67840127 71885
UBAKUSAT                
1 43467U 98067NQ  19227.00944565  .00008155  00000-0  91037-4 0  9991
2 43467  51.6375  48.6049 0001721 292.4900  67.5913 15.63778831 71841
BATSU-CS1 (IRAZU)       
1 43468U 98067NR  19226.67508706  .00021874  00000-0  17215-3 0  9995
2 43468  51.6355  40.3237 0000466 335.3942  24.7034 15.71400968171905
CUBERRT                 
1 43546U 98067NU  19226.77366566  .00005753  00000-0  60569-4 0  9998
2 43546  51.6382  50.0294 0003887   0.8766 359.2236 15.65978045 61931
TEMPEST-D               
1 43547U 98067NV  19226.80769072  .00003115  00000-0  46586-4 0  9995
2 43547  51.6387  60.0149 0005401 345.5323  14.5514 15.58457091 61484
RAINCUBE                
1 43548U 98067NW  19226.79876672  .00008707  00000-0  10202-3 0  9996
2 43548  51.6368  54.6820 0005040 355.5773   4.5175 15.62411846 62002
HALOSAT                 
1 43549U 98067NX  19226.74116504  .00008531  00000-0  10040-3 0  9998
2 43549  51.6376  55.0633 0005034 359.1405   0.9579 15.62326917 61555
ENDUROSAT ONE           
1 43551U 98067NZ  19226.83048956  .00010216  00000-0  11113-3 0  9991
2 43551  51.6372  51.9109 0005261   6.0382 354.0676 15.64107134 62014
EQUISAT                 
1 43552U 98067PA  19226.92314553  .00008746  00000-0  10148-3 0  9993
2 43552  51.6387  53.3082 0005671   5.0281 355.0769 15.62658803 61968
